{
  "type": "FeatureCollection",
  "features": [
    {
      "type": "Feature",
      "properties": {
        "norad_id": 36036,
        "name": "SMOS",
        "group": "resource",
        "lat": 16.404733767685432,
        "lon": -4.520777812867374,
        "alt_km": 759.8146357007827,
        "timestamp": "2025-12-13T22:39:29.364815+00:00",
        "meta_object_name": "SMOS",
        "meta_object_id": "2009-059A",
        "meta_epoch": "2025-12-13T06:53:27.117024",
        "meta_mean_motion": 14.39741986,
        "meta_eccentricity": 0.00011028,
        "meta_inclination": 98.4381,
        "meta_ra_of_asc_node": 172.3275,
        "meta_arg_of_pericenter": 84.4214,
        "meta_mean_anomaly": 275.71,
        "meta_ephemeris_type": 0,
        "meta_classification_type": "U",
        "meta_norad_cat_id": 36036,
        "meta_element_set_no": 999,
        "meta_rev_at_epoch": 84670,
        "meta_bstar": 0.00020570841,
        "meta_mean_motion_dot": 6.01e-06,
        "meta_mean_motion_ddot": 0,
        "tle_line1": "1 36036U 09059A   25347.28711941  .00000601  00000+0  20571-3 0  9999",
        "tle_line2": "2 36036  98.4381 172.3275 0001102  84.4214 275.7100 14.39741986846706"
      },
      "geometry": {
        "type": "Point",
        "coordinates": [
          -4.520777812867374,
          16.404733767685432
        ]
      }
    },
    {
      "type": "Feature",
      "properties": {
        "norad_id": 36110,
        "name": "YAOGAN-7",
        "group": "resource",
        "lat": 27.135729207636928,
        "lon": 53.845688580775146,
        "alt_km": 644.7733782751857,
        "timestamp": "2025-12-13T22:39:29.364826+00:00",
        "meta_object_name": "YAOGAN-7",
        "meta_object_id": "2009-069A",
        "meta_epoch": "2025-12-13T05:43:02.385984",
        "meta_mean_motion": 14.77734076,
        "meta_eccentricity": 0.00233648,
        "meta_inclination": 98.03,
        "meta_ra_of_asc_node": 228.9935,
        "meta_arg_of_pericenter": 279.5984,
        "meta_mean_anomaly": 80.2586,
        "meta_ephemeris_type": 0,
        "meta_classification_type": "U",
        "meta_norad_cat_id": 36110,
        "meta_element_set_no": 999,
        "meta_rev_at_epoch": 86216,
        "meta_bstar": 0.00015871538,
        "meta_mean_motion_dot": 1.089e-05,
        "meta_mean_motion_ddot": 0,
        "tle_line1": "1 36110U 09069A   25347.23822206  .00001089  00000+0  15872-3 0  9994",
        "tle_line2": "2 36110  98.0300 228.9935 0023364 279.5984  80.2586 14.77734076862161"
      },
      "geometry": {
        "type": "Point",
        "coordinates": [
          53.845688580775146,
          27.135729207636928
        ]
      }
    },
    {
      "type": "Feature",
      "properties": {
        "norad_id": 36605,
        "name": "TANDEM-X",
        "group": "resource",
        "lat": -37.384384828014646,
        "lon": 167.57103949190042,
        "alt_km": 515.6573032964397,
        "timestamp": "2025-12-13T22:39:29.364837+00:00",
        "meta_object_name": "TANDEM-X",
        "meta_object_id": "2010-030A",
        "meta_epoch": "2025-12-12T12:30:19.785312",
        "meta_mean_motion": 15.19147619,
        "meta_eccentricity": 0.00017615,
        "meta_inclination": 97.4455,
        "meta_ra_of_asc_node": 351.9037,
        "meta_arg_of_pericenter": 90.78,
        "meta_mean_anomaly": 269.3636,
        "meta_ephemeris_type": 0,
        "meta_classification_type": "U",
        "meta_norad_cat_id": 36605,
        "meta_element_set_no": 999,
        "meta_rev_at_epoch": 85830,
        "meta_bstar": 0.00012546262,
        "meta_mean_motion_dot": 2.568e-05,
        "meta_mean_motion_ddot": 0,
        "tle_line1": "1 36605U 10030A   25346.52106233  .00002568  00000+0  12546-3 0  9997",
        "tle_line2": "2 36605  97.4455 351.9037 0001761  90.7800 269.3636 15.19147619858306"
      },
      "geometry": {
        "type": "Point",
        "coordinates": [
          167.57103949190042,
          -37.384384828014646
        ]
      }
    },
    {
      "type": "Feature",
      "properties": {
        "norad_id": 36795,
        "name": "CARTOSAT-2B",
        "group": "resource",
        "lat": 80.41981191163406,
        "lon": -17.218814008162663,
        "alt_km": 616.9412779961904,
        "timestamp": "2025-12-13T22:39:29.364847+00:00",
        "meta_object_name": "CARTOSAT-2B",
        "meta_object_id": "2010-035A",
        "meta_epoch": "2025-12-13T06:02:19.000320",
        "meta_mean_motion": 14.78727671,
        "meta_eccentricity": 0.00130808,
        "meta_inclination": 97.7853,
        "meta_ra_of_asc_node": 36.2653,
        "meta_arg_of_pericenter": 75.1906,
        "meta_mean_anomaly": 285.0754,
        "meta_ephemeris_type": 0,
        "meta_classification_type": "U",
        "meta_norad_cat_id": 36795,
        "meta_element_set_no": 999,
        "meta_rev_at_epoch": 83237,
        "meta_bstar": 0.00027343256,
        "meta_mean_motion_dot": 1.96e-05,
        "meta_mean_motion_ddot": 0,
        "tle_line1": "1 36795U 10035A   25347.25160880  .00001960  00000+0  27343-3 0  9997",
        "tle_line2": "2 36795  97.7853  36.2653 0013080  75.1906 285.0754 14.78727671832370"
      },
      "geometry": {
        "type": "Point",
        "coordinates": [
          -17.218814008162663,
          80.41981191163406
        ]
      }
    },
    {
      "type": "Feature",
      "properties": {
        "norad_id": 36834,
        "name": "YAOGAN-10",
        "group": "resource",
        "lat": -10.087073998518738,
        "lon": -173.6620980875415,
        "alt_km": 619.3984089237647,
        "timestamp": "2025-12-13T22:39:29.364857+00:00",
        "meta_object_name": "YAOGAN-10",
        "meta_object_id": "2010-038A",
        "meta_epoch": "2025-12-13T07:49:49.618272",
        "meta_mean_motion": 14.84612404,
        "meta_eccentricity": 0.00015024,
        "meta_inclination": 97.9151,
        "meta_ra_of_asc_node": 7.1428,
        "meta_arg_of_pericenter": 81.8065,
        "meta_mean_anomaly": 48.246,
        "meta_ephemeris_type": 0,
        "meta_classification_type": "U",
        "meta_norad_cat_id": 36834,
        "meta_element_set_no": 999,
        "meta_rev_at_epoch": 82962,
        "meta_bstar": 0.00030125407,
        "meta_mean_motion_dot": 2.492e-05,
        "meta_mean_motion_ddot": 0,
        "tle_line1": "1 36834U 10038A   25347.32626873  .00002492  00000+0  30125-3 0  9994",
        "tle_line2": "2 36834  97.9151   7.1428 0001502  81.8065  48.2460 14.84612404829621"
      },
      "geometry": {
        "type": "Point",
        "coordinates": [
          -173.6620980875415,
          -10.087073998518738
        ]
      }
    },
    {
      "type": "Feature",
      "properties": {
        "norad_id": 37216,
        "name": "COSMO-SKYMED 4",
        "group": "resource",
        "lat": 75.1412422578838,
        "lon": 20.72201427226281,
        "alt_km": 614.4216036305779,
        "timestamp": "2025-12-13T22:39:29.364867+00:00",
        "meta_object_name": "COSMO-SKYMED 4",
        "meta_object_id": "2010-060A",
        "meta_epoch": "2025-12-13T14:05:44.384928",
        "meta_mean_motion": 14.82145679,
        "meta_eccentricity": 0.0001457,
        "meta_inclination": 97.8809,
        "meta_ra_of_asc_node": 168.8982,
        "meta_arg_of_pericenter": 91.0781,
        "meta_mean_anomaly": 269.0599,
        "meta_ephemeris_type": 0,
        "meta_classification_type": "U",
        "meta_norad_cat_id": 37216,
        "meta_element_set_no": 999,
        "meta_rev_at_epoch": 81707,
        "meta_bstar": 0.00010934,
        "meta_mean_motion_dot": 8.18e-06,
        "meta_mean_motion_ddot": 0,
        "tle_line1": "1 37216U 10060A   25347.58731927  .00000818  00000+0  10934-3 0  9995",
        "tle_line2": "2 37216  97.8809 168.8982 0001457  91.0781 269.0599 14.82145679817077"
      },
      "geometry": {
        "type": "Point",
        "coordinates": [
          20.72201427226281,
          75.1412422578838
        ]
      }
    },
    {
      "type": "Feature",
      "properties": {
        "norad_id": 37387,
        "name": "RESOURCESAT-2",
        "group": "resource",
        "lat": 14.232196537940188,
        "lon": -126.2609439042465,
        "alt_km": 823.5588542674232,
        "timestamp": "2025-12-13T22:39:29.364877+00:00",
        "meta_object_name": "RESOURCESAT-2",
        "meta_object_id": "2011-015A",
        "meta_epoch": "2025-12-13T06:40:48.010944",
        "meta_mean_motion": 14.21597717,
        "meta_eccentricity": 0.00064137,
        "meta_inclination": 98.7878,
        "meta_ra_of_asc_node": 50.8278,
        "meta_arg_of_pericenter": 41.3471,
        "meta_mean_anomaly": 318.819,
        "meta_ephemeris_type": 0,
        "meta_classification_type": "U",
        "meta_norad_cat_id": 37387,
        "meta_element_set_no": 999,
        "meta_rev_at_epoch": 75976,
        "meta_bstar": 0.00014127722,
        "meta_mean_motion_dot": 2.65e-06,
        "meta_mean_motion_ddot": 0,
        "tle_line1": "1 37387U 11015A   25347.27833346  .00000265  00000+0  14128-3 0  9994",
        "tle_line2": "2 37387  98.7878  50.8278 0006413  41.3471 318.8190 14.21597717759769"
      },
      "geometry": {
        "type": "Point",
        "coordinates": [
          -126.2609439042465,
          14.232196537940188
        ]
      }
    }
  ]
}